JILIN-1 GAOFEN 03D16    
1 51834U 22019L   25085.59791974  .00046492  00000+0  12580-2 0  9998
2 51834  97.3992 164.9813 0006363 306.7485  53.3175 15.37534335170556
JILIN-1 GAOFEN 03D11    
1 51835U 22019M   25085.56773764  .00047093  00000+0  13215-2 0  9997
2 51835  97.4026 164.8365 0005335 329.0033  31.0895 15.36404151170533
JILIN-1 GAOFEN 03D17    
1 51838U 22019Q   25085.58950603  .00109695  00000+0  15191-2 0  9993
2 51838  97.4017 169.8407 0005450 282.6810  77.3835 15.56703397170873
JILIN-1 GAOFEN 03D15    
1 51839U 22019R   25085.56282540  .00044391  00000+0  12900-2 0  9996
2 51839  97.4001 164.3837 0004337 355.8411   4.2796 15.35326230170528
JILIN-1 GAOFEN 03D10    
1 51840U 22019S   25085.58260599  .00046180  00000+0  12922-2 0  9992
2 51840  97.4002 164.9670 0002152 203.2208 156.8939 15.36508495170557
JILIN-1 GAOFEN 03D12    
1 51841U 22019T   25085.58302899  .00043472  00000+0  12589-2 0  9993
2 51841  97.3987 164.3464 0004012 284.2184  75.8614 15.35441922170520
JILIN-1 GAOFEN 03D18    
1 51844U 22019W   25085.58909894  .00045219  00000+0  12594-2 0  9991
2 51844  97.3981 164.2417 0008969 308.2720  51.7716 15.36623242170425
2022-023F               
1 51951U 22023F   25085.52194050  .00053154  55109-6  23286-2 0  9993
2 51951  63.4996 354.5259 0087100 341.8382  17.9625 15.18279835169744
CZ-4C R/B               
1 52085U 22027B   25085.47428545 -.00000056  00000+0  42147-4 0  9995
2 52085  63.3961 170.5320 0192792  24.7343 336.2787 13.65437732150903
MERIDIAN 10             
1 52145U 22030A   25084.83092815  .00000230  00000+0  00000+0 0  9992
2 52145  62.6544 187.9793 6753961 273.5208  17.6469  2.00599984 22041
OMNI-L1                 
1 52157U 22033A   25085.18942801  .00006570  00000+0  87044-3 0  9996
2 52157  97.8707 167.9630 0004328 310.2437  49.8396 14.80201944161122
ENMAP                   
1 52159U 22033C   25085.56264602  .00001907  00000+0  29142-3 0  9990
2 52159  97.9774 169.2315 0000984 105.5431 254.5886 14.74939368160676
ARCSAT-1                
1 52161U 22033E   25085.17315178  .00025645  00000+0  60700-3 0  9995
2 52161  97.2956 169.4594 0006534  39.2242 320.9477 15.41751877166420
BRO-7                   
1 52174U 22033T   25085.58567040  .00077337  00000+0  73567-3 0  9991
2 52174  97.2988 180.3438 0004764 315.0088  45.0786 15.66588283167171
GLOBAL-18               
1 52196U 22034B   25085.35441471  .00048120  00000+0  12300-2 0  9995
2 52196  52.9863 217.6273 0006926 328.9959  31.0634 15.38978313167946
GLOBAL-20               
1 52197U 22034C   25085.58714099  .01109448  76933-3  10854-2 0  9996
2 52197  52.9710 158.2208 0012091 345.9518  14.1177 16.10826195168784
GAOFEN-3 03             
1 52200U 22035A   25085.60276684  .00000327  00000+0  11247-3 0  9999
2 52200  98.4130  95.5690 0001699  97.2713 262.8670 14.42219654156331
DAQI 1                  
1 52257U 22039A   25085.59822265  .00001445  00000+0  32688-3 0  9999
2 52257  98.2394  25.9197 0002895 177.9154 182.2057 14.57651847156734
JILIN-1 GAOFEN 4A       
1 52388U 22046A   25085.56456011  .00066944  00000+0  15514-2 0  9994
2 52388  97.4843 180.9950 0010247 179.4615 180.6644 15.42135415160920
JILIN-1 GAOFEN 3D05     
1 52390U 22046C   25085.58036865  .00046064  00000+0  13200-2 0  9991
2 52390  97.4823 181.4029 0001095 127.4553 232.6790 15.35765313160994
JILIN-1 GAOFEN 3D07     
1 52392U 22046E   25085.58357649  .00058139  00000+0  14202-2 0  9998
2 52392  97.4908 183.6976 0000586 255.2888 104.8293 15.40635618161089
BRO-6                   
1 52422U 22047AE  25085.56615701  .00032171  00000+0  98793-3 0  9993
2 52422  97.3675 168.9397 0004982 233.3237 126.7548 15.33649547162237
JILIN-1 GAOFEN 3D27     
1 52444U 22048B   25085.56780633  .00040858  00000+0  13182-2 0  9994
2 52444  97.5727 173.6929 0009767 213.4263 146.6363 15.31984827160245
JILIN-1 GAOFEN 3D28     
1 52445U 22048C   25085.58783486  .00041296  00000+0  13173-2 0  9993
2 52445  97.5692 173.4475 0008067 230.6458 129.4069 15.32361713160257
CONNECTA T1.1           
1 52739U 22057H   25085.61446006  .00061441  00000+0  12442-2 0  9999
2 52739  97.6009 221.1836 0006165 240.8368 119.2264 15.46194411157511
VIGORIDE-3              
1 52760U 22057AE  25085.62263125  .00009295  00000+0  40976-3 0  9996
2 52760  97.6005 212.4519 0008796 245.2347 114.7974 15.21995100156974
ION SCV-006             
1 52761U 22057AF  25085.61902181  .00020654  00000+0  63999-3 0  9990
2 52761  97.5518 213.7479 0022141 278.6609  81.2125 15.33225595157270
SHERPA-AC1              
1 52763U 22057AH  25085.61789897  .00015017  00000+0  55264-3 0  9992
2 52763  97.6061 215.8928 0008549 231.5848 128.4624 15.27931232157179
PLATFORM-1              
1 52770U 22057AQ  25085.62936719  .00109358  00000+0  19385-2 0  9993
2 52770  97.5977 224.8126 0007606 227.3889 132.6721 15.49832295157799
OMNI-L2                 
1 52771U 22057AR  25085.20730786  .00006296  00000+0  85169-3 0  9995
2 52771  97.5119 171.9384 0006568   5.4917 354.6366 14.79306965154115
STEP CUBE LAB-II        
1 52897U 22065D   25085.62956548  .00003409  00000+0  68730-3 0  9993
2 52897  98.1568 227.9919 0008338 355.0175   5.0942 14.62098277146071
RANDEV                  
1 52898U 22065E   25085.53130206  .00003514  00000+0  70349-3 0  9995
2 52898  98.1557 228.0682 0007664 357.2782   2.8376 14.62401609145799
SNUGLITE-II             
1 52899U 22065F   25085.39869715  .00004426  00000+0  87400-3 0  9993
2 52899  98.1546 228.1675 0007225 357.7699   2.3469 14.62899782145494
MIMAN                   
1 52900U 22065G   25085.62198297  .00002436  00000+0  50623-3 0  9998
2 52900  98.1591 227.3528 0007304 354.6161   5.4960 14.60974578145072
STARLINK-4362           
1 53043U 22077A   25085.45082855  .00000892  00000+0  74003-4 0  9996
2 53043  97.6560 268.2608 0002013  88.3208 271.8247 15.01263911148673
LARES-2                 
1 53105U 22080A   25083.18091292  .00000029  00000+0  00000+0 0  9995
2 53105  70.1407  99.6635 0004871  73.3020 286.8250  6.38965290 62915
ROBUSTA-1F (MTCUBE 2)   
1 53109U 22080E   25085.41852690 -.00000003  00000+0  00000+0 0  9997
2 53109  70.1190  93.9663 0008505  23.4617 336.6430  6.42584444 63291
STARLINK-4410           
1 53204U 22084R   25085.43749745  .00000956  00000+0  78965-4 0  9991
2 53204  97.6525 148.2383 0001981  90.9294 269.2157 15.01263964147721
COSMOS 2558             
1 53323U 22089A   25085.70950796  .00038121  00000+0  11427-2 0  9991
2 53323  97.2326 183.8111 0005803 178.6131 181.5129 15.34374031148554
TECMS                   
1 53346U 22090A   25085.58040753  .00011467  00000+0  51539-3 0  9990
2 53346  97.3631 159.9695 0005344 253.9830 106.0817 15.21280974146768
DONGPO 04               
1 53451U 22098H   25085.60540380  .00048916  00000+0  13530-2 0  9996
2 53451  97.5349 194.9769 0004860 192.7796 167.3326 15.36846848145608
DONGPO 02               
1 53452U 22098J   25085.60698114  .00042785  00000+0  13504-2 0  9995
2 53452  97.5213 192.5119 0005578 147.8163 212.3420 15.32708661145532
DONGPO 01               
1 53453U 22098K   25085.58648234  .00041449  00000+0  13227-2 0  9999
2 53453  97.5284 193.0784 0001954 163.1503 196.9804 15.32376291145520
STARLINK-4400           
1 53468U 22099D   25085.59887981  .00004602  00000+0  36266-3 0  9990
2 53468  97.6520 208.4030 0002104  94.7087 265.4377 15.01262025143754
STARLINK-4621           
1 53676U 22105AE  25085.54186102  .00002921  00000+0  23182-3 0  9996
2 53676  97.6551 328.3422 0003643  75.3386 284.8242 15.01277006141009
SHERPA-LTC2             
1 53754U 22107BG  25085.34779619  .00018449  00000+0  94590-3 0  9997
2 53754  53.2358 307.6894 0419380  59.2551 304.9027 14.63651145136822
CENTISPACE-1 S3         
1 53757U 22108A   25085.55122566  .00001499  00000+0  34537-3 0  9999
2 53757  53.5316 105.1507 0008488 228.2150 131.8101 14.60432720136104
CENTISPACE-1 S4         
1 53758U 22108B   25085.58075955  .00001849  00000+0  41279-3 0  9992
2 53758  53.5291 104.4108 0008267 212.7824 147.2639 14.60926687136115
BLUEWALKER-3            
1 53807U 22111AL  25085.39866639  .00016250  00000+0  52502-3 0  9990
2 53807  53.2337 326.2211 0005925 216.2680 143.7921 15.32253498141422
YUNHAI-1 03             
1 53877U 22115A   25085.53829700  .00000909  00000+0  34600-3 0  9998
2 53877  98.5378  84.8359 0001104  22.1673 337.9559 14.33295326131415
CENTISPACE-1 S5         
1 54020U 22126A   25085.58109434  .00004192  00000+0  87220-3 0  9995
2 54020  54.9982 202.3456 0014550 135.3205 224.8964 14.61667656131554
CENTISPACE-1 S6         
1 54021U 22126B   25085.60308693  .00003462  00000+0  73296-3 0  9994
2 54021  54.9985 202.4712 0016373 137.3785 222.8482 14.61267323131543
OTB-3-GAZELLE           
1 54023U 22127A   25085.47541497  .00000680  00000+0  21815-3 0  9992
2 54023  98.3657  79.9036 0014496  98.7361 261.5471 14.42452416129816
ASO-S                   
1 54029U 22129A   25085.52041295  .00000800  00000+0  20981-3 0  9994
2 54029  98.2743  92.1848 0015030  33.2830 326.9307 14.51787176130466
HJ-2E                   
1 54035U 22132A   25085.59764584  .00019701  00000+0  91461-3 0  9996
2 54035  97.3832  93.4487 0009349 124.9634 235.2480 15.20018561136351
COSMOS 2561             
1 54109U 22137A   25085.72189095  .00020246  00000+0  51722-3 0  9998
2 54109  96.9792 158.5345 0011669 219.8133 140.2258 15.39423753137245
GONETS-M 23             
1 54150U 22139A   25085.53321969  .00000084  00000+0  53609-3 0  9997
2 54150  82.5004 266.4453 0021968 117.9326 242.3982 12.42887795110039
GONETS-M 24             
1 54151U 22139B   25085.58723783  .00000063  00000+0  38132-3 0  9994
2 54151  82.4923 265.7772 0016985 127.9602 232.3015 12.42890676110045
GONETS-M 25             
1 54152U 22139C   25085.57349854  .00000067  00000+0  41256-3 0  9992
2 54152  82.4988 266.2326 0020781 126.4805 233.8193 12.42885860110048
